[{"OBJECT_NAME":"STARLINK-5143","OBJECT_ID":"2022-136AQ","EPOCH":"2026-03-09T22:33:01.957536","MEAN_MOTION":15.08836554,"ECCENTRICITY":0.00014085,"INCLINATION":53.2206,"RA_OF_ASC_NODE":332.8783,"ARG_OF_PERICENTER":96.5484,"MEAN_ANOMALY":263.5669,"EPHEMERIS_TYPE":0,"CLASSIFICATION_TYPE":"U","NORAD_CAT_ID":54089,"ELEMENT_SET_NO":999,"REV_AT_EPOCH":18702,"BSTAR":6.3784766e-5,"MEAN_MOTION_DOT":7.27e-6,"MEAN_MOTION_DDOT":0},{"OBJECT_NAME":"NANOFF A","OBJECT_ID":"2023-185T","EPOCH":"2026-03-09T23:34:34.415328","MEAN_MOTION":15.11542977,"ECCENTRICITY":0.00086783,"INCLINATION":97.5359,"RA_OF_ASC_NODE":137.8345,"ARG_OF_PERICENTER":292.8968,"MEAN_ANOMALY":67.1346,"EPHEMERIS_TYPE":0,"CLASSIFICATION_TYPE":"U","NORAD_CAT_ID":58810,"ELEMENT_SET_NO":999,"REV_AT_EPOCH":11805,"BSTAR":0.00027314844,"MEAN_MOTION_DOT":4.57e-5,"MEAN_MOTION_DDOT":0}]
